BEIDOU-3S IGSO-1S       
1 40549U 15019A   26181.78913706 -.00000147  00000+0  00000+0 0  9998
2 40549  49.1687 295.2980 0039177 191.9393 165.8805  1.00249006 41208
NAVSTAR 74 (USA 262)    
1 40730U 15033A   26181.68318008 -.00000006  00000+0  00000+0 0  9993
2 40730  53.9720 266.5298 0115177  30.2516 330.4770  2.00555717 80261
BEIDOU-3S M2S           
1 40748U 15037A   26181.74710765 -.00000069  00000+0  00000+0 0  9998
2 40748  54.8577 301.5791 0008701 257.8706 102.0420  1.86232345 74372
BEIDOU-3S M1S           
1 40749U 15037B   26181.41596235 -.00000071  00000+0  00000+0 0  9990
2 40749  54.8549 301.5784 0003166  62.7557 297.2848  1.86255043 74372
GSAT0206 (GALILEO 10)   
1 40890U 15045B   26180.18897275  .00000071  00000+0  00000+0 0  9996
2 40890  54.9419 221.2728 0001777 331.4774  28.6098  1.70473826 67240
BEIDOU-3S IGSO-2S       
1 40938U 15053A   26181.70325568 -.00000093  00000+0  00000+0 0  9993
2 40938  49.1997 258.6210 0065679 193.2539 174.4507  1.00257046 39492
NAVSTAR 75 (USA 265)    
1 41019U 15062A   26180.74153782 -.00000066  00000+0  00000+0 0  9994
2 41019  56.9678  30.3277 0112244 230.9838 128.0695  2.00567192 78083
GSAT-15                 
1 41028U 15065A   26181.82594358 -.00000247  00000+0  00000+0 0  9996
2 41028   0.0443 257.4389 0004548 181.8683 230.4218  1.00269674 38930
GSAT0209 (GALILEO 12)   
1 41174U 15079A   26179.18392164 -.00000033  00000+0  00000+0 0  9993
2 41174  55.8335 100.9603 0005085 347.1897  12.7761  1.70473803 64966
GSAT0208 (GALILEO 11)   
1 41175U 15079B   26181.16401946 -.00000023  00000+0  00000+0 0  9993
2 41175  55.8332 100.9029 0004721 349.8259  10.1551  1.70473794 65412
IRNSS-1E                
1 41241U 16003A   26180.82733131 -.00000310  00000+0  00000+0 0  9990
2 41241  33.2608  59.5670 0019200 178.7998  89.1855  1.00272765 38208
NAVSTAR 76 (USA 266)    
1 41328U 16007A   26180.33477731 -.00000042  00000+0  00000+0 0  9999
2 41328  55.5311  88.9782 0095276 246.9428 112.0663  2.00551119 76080
COSMOS 2514 [GLONASS-M] 
1 41330U 16008A   26181.42445042 -.00000060  00000+0  00000+0 0  9994
2 41330  65.0130 312.5525 0011780 199.4443 160.5073  2.13102711 80909
BEIDOU-2 IGSO-6         
1 41434U 16021A   26177.11016981 -.00000145  00000+0  00000+0 0  9995
2 41434  60.2385  37.9495 0057558 231.0163 137.2672  1.00258926 37578
IRNSS-1G                
1 41469U 16027A   26181.68339229 -.00000327  00000+0  00000+0 0  9991
2 41469   5.2280  97.1626 0005807   4.8233 192.2540  1.00280808 37318
GSAT0211 (GALILEO 14)   
1 41549U 16030A   26178.94152421  .00000069  00000+0  00000+0 0  9998
2 41549  55.0927 221.3989 0003116 320.4926  39.5816  1.70474008 62858
GSAT0210 (GALILEO 13)   
1 41550U 16030B   26178.02561661  .00000065  00000+0  00000+0 0  9995
2 41550  55.0912 221.4221 0007792 256.4220 103.5859  1.70473957 62832
BEIDOU-2 G7             
1 41586U 16037A   26181.82229781 -.00000344  00000+0  00000+0 0  9998
2 41586   1.7527  69.4303 0006813   3.0878 252.9455  1.00270500  7023
EUTELSAT 117 WEST B     
1 41589U 16038B   26180.99307013  .00000000  00000+0  00000+0 0  9992
2 41589   0.0081 158.9425 0000273  97.6897 261.9417  1.00268514 36792
GSAT0207 (GALILEO 15)   
1 41859U 16069A   26177.71738502 -.00000038  00000+0  00000+0 0  9995
2 41859  55.5042 100.8225 0005006 333.0982  26.8500  1.70473700 59562
GSAT0212 (GALILEO 16)   
1 41860U 16069B   26179.33057380 -.00000033  00000+0  00000+0 0  9990
2 41860  55.5028 100.7730 0004434   6.1382 353.8467  1.70473934 59849
GSAT0213 (GALILEO 17)   
1 41861U 16069C   26179.11118849 -.00000034  00000+0  00000+0 0  9996
2 41861  55.5047 100.7870 0004537 315.9585  43.9839  1.70474290 59707
GSAT0214 (GALILEO 18)   
1 41862U 16069D   26179.25744257 -.00000033  00000+0  00000+0 0  9999
2 41862  55.5035 100.7756 0003548 328.2164  31.7414  1.70473610 59832
SES-15                  
1 42709U 17026A   26181.70349906  .00000071  00000+0  00000+0 0  9990
2 42709   0.0216 335.7797 0000736 110.5888 316.4941  1.00268794  7564
QZS-2 (MICHIBIKI-2)     
1 42738U 17028A   26181.47394152 -.00000114  00000+0  00000+0 0  9990
2 42738  39.4073 242.9582 0758809 269.4153  78.9182  1.00280487  7755
QZS-3 (MICHIBIKI-3)     
1 42917U 17048A   26181.82550448 -.00000337  00000+0  00000+0 0  9999
2 42917   0.0742 138.7733 0002291 318.2148 246.1181  1.00269965 32399
COSMOS 2522 [GLONASS-M] 
1 42939U 17055A   26181.26218146  .00000081  00000+0  00000+0 0  9990
2 42939  64.0804 191.4393 0010860 240.9139 119.0170  2.13101860 68256
QZS-4 (MICHIBIKI-4)     
1 42965U 17062A   26181.32690646 -.00000331  00000+0  00000+0 0  9992
2 42965  40.1009 343.3188 0746709 268.3129 282.6055  1.00295775 31936
BEIDOU-3 M1             
1 43001U 17069A   26180.48304517 -.00000055  00000+0  00000+0 0  9999
2 43001  56.7025  62.6794 0009888 326.2778  33.7184  1.86231574 58834
BEIDOU-3 M2             
1 43002U 17069B   26179.34790984 -.00000066  00000+0  00000+0 0  9992
2 43002  56.7011  62.7525 0008853 353.2945   6.7468  1.86230827 58802
GSAT0215 (GALILEO 19)   
1 43055U 17079A   26179.16063341  .00000069  00000+0  00000+0 0  9993
2 43055  55.0711 221.2046 0003100 263.9664  96.0952  1.70474711 53174
